{"type": "FeatureCollection", "features": [ {"type": "Feature", "properties": {"norad_id": 44804, "name": "CARTOSAT-3", "group": "resource", "lat": 51.35698277066415, "lon": 50.581594996845105, "alt_km": 494.2571999202464, "timestamp": "2025-12-26T14:28:47.346894+00:00", "meta": {"OBJECT_NAME": "CARTOSAT-3", "OBJECT_ID": "2019-081A", "EPOCH": "2025-12-26T06:20:55.831776", "MEAN_MOTION": 15.19263831, "ECCENTRICITY": 0.00135471, "INCLINATION": 97.456, "RA_OF_ASC_NODE": 59.6748, "ARG_OF_PERICENTER": 40.3618, "MEAN_ANOMALY": 319.862, "EPHEMERIS_TYPE": 0, "CLASSIFICATION_TYPE": "U", "NORAD_CAT_ID": 44804, "ELEMENT_SET_NO": 999, "REV_AT_EPOCH": 33721, "BSTAR": 0.00015859231, "MEAN_MOTION_DOT": 3.282e-05, "MEAN_MOTION_DDOT": 0}, "tle": {"line1": "1 44804U 19081A   25360.26453509  .00003282  00000+0  15859-3 0  9994", "line2": "2 44804  97.4560  59.6748 0013547  40.3618 319.8620 15.19263831337218"}}, "geometry": {"type": "Point", "coordinates": [50.581594996845105, 51.35698277066415]}}, {"type": "Feature", "properties": {"norad_id": 44819, "name": "GAOFEN-12 01", "group": "resource", "lat": 34.707881766101, "lon": 1.0635218647922147, "alt_km": 626.164354907849, "timestamp": "2025-12-26T14:28:47.346905+00:00", "meta": {"OBJECT_NAME": "GAOFEN-12 01", "OBJECT_ID": "2019-082A", "EPOCH": "2025-12-26T07:50:03.584832", "MEAN_MOTION": 14.80672783, "ECCENTRICITY": 0.00023067, "INCLINATION": 97.8125, "RA_OF_ASC_NODE": 6.2508, "ARG_OF_PERICENTER": 174.902, "MEAN_ANOMALY": 185.2216, "EPHEMERIS_TYPE": 0, "CLASSIFICATION_TYPE": "U", "NORAD_CAT_ID": 44819, "ELEMENT_SET_NO": 999, "REV_AT_EPOCH": 32851, "BSTAR": 7.4602284e-05, "MEAN_MOTION_DOT": 5.23e-06, "MEAN_MOTION_DDOT": 0}, "tle": {"line1": "1 44819U 19082A   25360.32643038  .00000523  00000+0  74602-4 0  9993", "line2": "2 44819  97.8125   6.2508 0002306 174.9020 185.2216 14.80672783328515"}}, "geometry": {"type": "Point", "coordinates": [1.0635218647922147, 34.707881766101]}}, {"type": "Feature", "properties": {"norad_id": 44873, "name": "CSG-1", "group": "resource", "lat": -40.11011798242987, "lon": -4.981677809185212, "alt_km": 629.7849508274039, "timestamp": "2025-12-26T14:28:47.346915+00:00", "meta": {"OBJECT_NAME": "CSG-1", "OBJECT_ID": "2019-092A", "EPOCH": "2025-12-26T07:00:26.027424", "MEAN_MOTION": 14.8216247, "ECCENTRICITY": 0.0001452, "INCLINATION": 97.8805, "RA_OF_ASC_NODE": 181.4121, "ARG_OF_PERICENTER": 85.0491, "MEAN_ANOMALY": 275.0888, "EPHEMERIS_TYPE": 0, "CLASSIFICATION_TYPE": "U", "NORAD_CAT_ID": 44873, "ELEMENT_SET_NO": 999, "REV_AT_EPOCH": 32586, "BSTAR": 9.0223518e-05, "MEAN_MOTION_DOT": 6.66e-06, "MEAN_MOTION_DDOT": 0}, "tle": {"line1": "1 44873U 19092A   25360.29196791  .00000666  00000+0  90224-4 0  9995", "line2": "2 44873  97.8805 181.4121 0001452  85.0491 275.0888 14.82162470325869"}}, "geometry": {"type": "Point", "coordinates": [-4.981677809185212, -40.11011798242987]}}, {"type": "Feature", "properties": {"norad_id": 46277, "name": "NEMO-HD", "group": "resource", "lat": 43.92045966105544, "lon": 52.51400006422364, "alt_km": 440.0082907164615, "timestamp": "2025-12-26T14:28:47.346926+00:00", "meta": {"OBJECT_NAME": "NEMO-HD", "OBJECT_ID": "2020-061F", "EPOCH": "2025-12-26T08:03:09.201024", "MEAN_MOTION": 15.40605541, "ECCENTRICITY": 0.00010072, "INCLINATION": 97.2188, "RA_OF_ASC_NODE": 59.2608, "ARG_OF_PERICENTER": 54.2707, "MEAN_ANOMALY": 305.8633, "EPHEMERIS_TYPE": 0, "CLASSIFICATION_TYPE": "U", "NORAD_CAT_ID": 46277, "ELEMENT_SET_NO": 999, "REV_AT_EPOCH": 29533, "BSTAR": 0.00026331732, "MEAN_MOTION_DOT": 0.00010637, "MEAN_MOTION_DDOT": 0}, "tle": {"line1": "1 46277U 20061F   25360.33552316  .00010637  00000+0  26332-3 0  9994", "line2": "2 46277  97.2188  59.2608 0001007  54.2707 305.8633 15.40605541295337"}}, "geometry": {"type": "Point", "coordinates": [52.51400006422364, 43.92045966105544]}}, {"type": "Feature", "properties": {"norad_id": 46984, "name": "SENTINEL-6A", "group": "resource", "lat": -50.2442735389839, "lon": 101.20273983426337, "alt_km": 1338.7108111682628, "timestamp": "2025-12-26T14:28:47.346936+00:00", "meta": {"OBJECT_NAME": "SENTINEL-6A", "OBJECT_ID": "2020-086A", "EPOCH": "2025-12-26T07:16:57.743904", "MEAN_MOTION": 12.809308, "ECCENTRICITY": 0.00077608, "INCLINATION": 66.0402, "RA_OF_ASC_NODE": 134.1359, "ARG_OF_PERICENTER": 269.4526, "MEAN_ANOMALY": 90.56, "EPHEMERIS_TYPE": 0, "CLASSIFICATION_TYPE": "U", "NORAD_CAT_ID": 46984, "ELEMENT_SET_NO": 999, "REV_AT_EPOCH": 23818, "BSTAR": 6.7683543e-05, "MEAN_MOTION_DOT": -4.5e-07, "MEAN_MOTION_DDOT": 0}, "tle": {"line1": "1 46984U 20086A   25360.30344611 -.00000045  00000+0  67684-4 0  9999", "line2": "2 46984  66.0402 134.1359 0007760 269.4526  90.5600 12.80930800238184"}}, "geometry": {"type": "Point", "coordinates": [101.20273983426337, -50.2442735389839]}}, {"type": "Feature", "properties": {"norad_id": 48079, "name": "GAOFEN-12 02", "group": "resource", "lat": 46.885101906774686, "lon": -14.07997137309656, "alt_km": 620.7904940590988, "timestamp": "2025-12-26T14:28:47.346946+00:00", "meta": {"OBJECT_NAME": "GAOFEN-12 02", "OBJECT_ID": "2021-026A", "EPOCH": "2025-12-26T06:09:24.923808", "MEAN_MOTION": 14.80690594, "ECCENTRICITY": 0.00035373, "INCLINATION": 97.9858, "RA_OF_ASC_NODE": 354.1982, "ARG_OF_PERICENTER": 74.0405, "MEAN_ANOMALY": 286.1197, "EPHEMERIS_TYPE": 0, "CLASSIFICATION_TYPE": "U", "NORAD_CAT_ID": 48079, "ELEMENT_SET_NO": 999, "REV_AT_EPOCH": 25617, "BSTAR": 7.3560697e-05, "MEAN_MOTION_DOT": 5.13e-06, "MEAN_MOTION_DDOT": 0}, "tle": {"line1": "1 48079U 21026A   25360.25653847  .00000513  00000+0  73561-4 0  9999", "line2": "2 48079  97.9858 354.1982 0003537  74.0405 286.1197 14.80690594256177"}}, "geometry": {"type": "Point", "coordinates": [-14.07997137309656, 46.885101906774686]}}, {"type": "Feature", "properties": {"norad_id": 48268, "name": "PLEIADES NEO 3", "group": "resource", "lat": 15.948524813856716, "lon": -104.88221262309146, "alt_km": 624.5306678636516, "timestamp": "2025-12-26T14:28:47.346956+00:00", "meta": {"OBJECT_NAME": "PLEIADES NEO 3", "OBJECT_ID": "2021-034A", "EPOCH": "2025-12-26T07:15:36.057024", "MEAN_MOTION": 14.8167322, "ECCENTRICITY": 0.00013552, "INCLINATION": 97.8941, "RA_OF_ASC_NODE": 72.5489, "ARG_OF_PERICENTER": 89.8567, "MEAN_ANOMALY": 270.2801, "EPHEMERIS_TYPE": 0, "CLASSIFICATION_TYPE": "U", "NORAD_CAT_ID": 48268, "ELEMENT_SET_NO": 999, "REV_AT_EPOCH": 25205, "BSTAR": 5.8503863e-05, "MEAN_MOTION_DOT": 4.08e-06, "MEAN_MOTION_DDOT": 0}, "tle": {"line1": "1 48268U 21034A   25360.30250066  .00000408  00000+0  58504-4 0  9993", "line2": "2 48268  97.8941  72.5489 0001355  89.8567 270.2801 14.81673220252058"}}, "geometry": {"type": "Point", "coordinates": [-104.88221262309146, 15.948524813856716]}}, {"type": "Feature", "properties": {"norad_id": 49070, "name": "PLEIADES NEO 4", "group": "resource", "lat": -16.14781979659246, "lon": 75.1438526320206, "alt_km": 629.1640798938115, "timestamp": "2025-12-26T14:28:47.346968+00:00", "meta": {"OBJECT_NAME": "PLEIADES NEO 4", "OBJECT_ID": "2021-073E", "EPOCH": "2025-12-26T08:04:12.432864", "MEAN_MOTION": 14.81671672, "ECCENTRICITY": 0.0001389, "INCLINATION": 97.8943, "RA_OF_ASC_NODE": 72.5782, "ARG_OF_PERICENTER": 89.4995, "MEAN_ANOMALY": 270.6377, "EPHEMERIS_TYPE": 0, "CLASSIFICATION_TYPE": "U", "NORAD_CAT_ID": 49070, "ELEMENT_SET_NO": 999, "REV_AT_EPOCH": 23577, "BSTAR": -6.318255e-05, "MEAN_MOTION_DOT": -5.49e-06, "MEAN_MOTION_DDOT": 0}, "tle": {"line1": "1 49070U 21073E   25360.33625501 -.00000549  00000+0 -63183-4 0  9998", "line2": "2 49070  97.8943  72.5782 0001389  89.4995 270.6377 14.81671672235777"}}, "geometry": {"type": "Point", "coordinates": [75.1438526320206, -16.14781979659246]}}, {"type": "Feature", "properties": {"norad_id": 49260, "name": "LANDSAT 9", "group": "resource", "lat": -36.117387992714335, "lon": -117.53332117826272, "alt_km": 709.2714723367326, "timestamp": "2025-12-26T14:28:47.346979+00:00", "meta": {"OBJECT_NAME": "LANDSAT 9", "OBJECT_ID": "2021-088A", "EPOCH": "2025-12-26T03:36:04.168800", "MEAN_MOTION": 14.5711124, "ECCENTRICITY": 0.00011098, "INCLINATION": 98.2076, "RA_OF_ASC_NODE": 68.0655, "ARG_OF_PERICENTER": 93.5526, "MEAN_ANOMALY": 266.5799, "EPHEMERIS_TYPE": 0, "CLASSIFICATION_TYPE": "U", "NORAD_CAT_ID": 49260, "ELEMENT_SET_NO": 999, "REV_AT_EPOCH": 22580, "BSTAR": 0.00010352075, "MEAN_MOTION_DOT": 4.21e-06, "MEAN_MOTION_DDOT": 0}, "tle": {"line1": "1 49260U 21088A   25360.15004825  .00000421  00000+0  10352-3 0  9991", "line2": "2 49260  98.2076  68.0655 0001109  93.5526 266.5799 14.57111240225803"}}, "geometry": {"type": "Point", "coordinates": [-117.53332117826272, -36.117387992714335]}}, {"type": "Feature", "properties": {"norad_id": 51444, "name": "CSG-2", "group": "resource", "lat": 39.855757053490976, "lon": 175.07711165171946, "alt_km": 618.7264124066496, "timestamp": "2025-12-26T14:28:47.346989+00:00", "meta": {"OBJECT_NAME": "CSG-2", "OBJECT_ID": "2022-008A", "EPOCH": "2025-12-26T07:49:03.186048", "MEAN_MOTION": 14.82155934, "ECCENTRICITY": 0.00014473, "INCLINATION": 97.8806, "RA_OF_ASC_NODE": 181.4438, "ARG_OF_PERICENTER": 84.3036, "MEAN_ANOMALY": 275.8342, "EPHEMERIS_TYPE": 0, "CLASSIFICATION_TYPE": "U", "NORAD_CAT_ID": 51444, "ELEMENT_SET_NO": 999, "REV_AT_EPOCH": 21098, "BSTAR": 4.5245052e-05, "MEAN_MOTION_DOT": 3.08e-06, "MEAN_MOTION_DDOT": 0}, "tle": {"line1": "1 51444U 22008A   25360.32573132  .00000308  00000+0  45245-4 0  9996", "line2": "2 51444  97.8806 181.4438 0001447  84.3036 275.8342 14.82155934210980"}}, "geometry": {"type": "Point", "coordinates": [175.07711165171946, 39.855757053490976]}}]}